start=new Date('2022-08-24T00:00:00.000Z').valueOf();
sats=[{"INCLINATION":"53.0553","SITE":"AFETR","BSTAR":"0.00014555000000","MEAN_MOTION_DDOT":"0.0000000000000","SEMIMAJOR_AXIS":"6925.363","TIME_SYSTEM":"UTC","ELEMENT_SET_NO":"999","MEAN_ELEMENT_THEORY":"SGP4","CENTER_NAME":"EARTH","REF_FRAME":"TEME","PERIAPSIS":"546.441","APOAPSIS":"548.014","CLASSIFICATION_TYPE":"U","OBJECT_NAME":"STARLINK-1984","OBJECT_ID":"2021-009AK","RA_OF_ASC_NODE":"51.5883","COUNTRY_CODE":"US","FILE":"3545070","OBJECT_TYPE":"PAYLOAD","MEAN_ANOMALY":"262.8514","TLE_LINE2":"2 47581  53.0553  51.5883 0001136  97.2605 262.8514 15.06395404 86007","MEAN_MOTION_DOT":"0.00001887","EPHEMERIS_TYPE":"0","MEAN_MOTION":"15.06395404","PERIOD":"95.592","ECCENTRICITY":"0.00011360","EPOCH":"2022-08-23T11:20:33.966240","NORAD_CAT_ID":"47581","REV_AT_EPOCH":"8600","DECAY_DATE":null,"TLE_LINE1":"1 47581U 21009AK  22235.47261535  .00001887  00000-0  14555-3 0  9991","LAUNCH_DATE":"2021-02-04","RCS_SIZE":"LARGE","GP_ID":"210823290","ARG_OF_PERICENTER":"97.2605"},{"ECCENTRICITY":"0.00015650","PERIOD":"95.592","DECAY_DATE":null,"REV_AT_EPOCH":"8578","NORAD_CAT_ID":"47582","EPOCH":"2022-08-23T20:35:12.795936","RCS_SIZE":"LARGE","TLE_LINE1":"1 47582U 21009AL  22235.85778699  .00002640  00000-0  19607-3 0  9999","LAUNCH_DATE":"2021-02-04","GP_ID":"210860555","ARG_OF_PERICENTER":"76.7437","COUNTRY_CODE":"US","MEAN_ANOMALY":"283.3727","TLE_LINE2":"2 47582  53.0559  69.8713 0001565  76.7437 283.3727 15.06403035 85787","MEAN_MOTION_DOT":"0.00002640","FILE":"3545624","OBJECT_TYPE":"PAYLOAD","EPHEMERIS_TYPE":"0","MEAN_MOTION":"15.06403035","MEAN_ELEMENT_THEORY":"SGP4","CENTER_NAME":"EARTH","ELEMENT_SET_NO":"999","REF_FRAME":"TEME","PERIAPSIS":"546.120","APOAPSIS":"548.288","CLASSIFICATION_TYPE":"U","OBJECT_NAME":"STARLINK-1986","OBJECT_ID":"2021-009AL","RA_OF_ASC_NODE":"69.8713","SITE":"AFETR","INCLINATION":"53.0559","SEMIMAJOR_AXIS":"6925.339","BSTAR":"0.00019607000000","MEAN_MOTION_DDOT":"0.0000000000000","TIME_SYSTEM":"UTC"},{"SEMIMAJOR_AXIS":"6925.345","MEAN_MOTION_DDOT":"0.0000000000000","BSTAR":"0.00005344700000","SITE":"AFETR","INCLINATION":"53.0544","TIME_SYSTEM":"UTC","PERIAPSIS":"546.219","APOAPSIS":"548.201","REF_FRAME":"TEME","CENTER_NAME":"EARTH","MEAN_ELEMENT_THEORY":"SGP4","ELEMENT_SET_NO":"999","RA_OF_ASC_NODE":"69.9551","OBJECT_ID":"2021-009AM","OBJECT_NAME":"STARLINK-1987","CLASSIFICATION_TYPE":"U","COUNTRY_CODE":"US","MEAN_MOTION":"15.06401143","EPHEMERIS_TYPE":"0","MEAN_MOTION_DOT":"0.00000515","MEAN_ANOMALY":"276.3683","TLE_LINE2":"2 47583  53.0544  69.9551 0001431  83.7469 276.3683 15.06401143 85789","OBJECT_TYPE":"PAYLOAD","FILE":"3545624","DECAY_DATE":null,"NORAD_CAT_ID":"47583","EPOCH":"2022-08-23T20:03:21.954528","REV_AT_EPOCH":"8578","ECCENTRICITY":"0.00014310","PERIOD":"95.592","ARG_OF_PERICENTER":"83.7469","GP_ID":"210860798","RCS_SIZE":"LARGE","LAUNCH_DATE":"2021-02-04","TLE_LINE1":"1 47583U 21009AM  22235.83567077  .00000515  00000-0  53447-4 0  9994"},{"REF_FRAME":"TEME","PERIAPSIS":"546.380","APOAPSIS":"548.089","ELEMENT_SET_NO":"999","MEAN_ELEMENT_THEORY":"SGP4","CENTER_NAME":"EARTH","OBJECT_ID":"2021-009AP","OBJECT_NAME":"STARLINK-1989","RA_OF_ASC_NODE":"69.8515","CLASSIFICATION_TYPE":"U","BSTAR":"0.00003065200000","MEAN_MOTION_DDOT":"0.0000000000000","SEMIMAJOR_AXIS":"6925.369","INCLINATION":"53.0553","SITE":"AFETR","TIME_SYSTEM":"UTC","REV_AT_EPOCH":"8578","EPOCH":"2022-08-23T20:40:31.386432","NORAD_CAT_ID":"47585","DECAY_DATE":null,"PERIOD":"95.593","ECCENTRICITY":"0.00012340","ARG_OF_PERICENTER":"61.5118","GP_ID":"210859554","TLE_LINE1":"1 47585U 21009AP  22235.86147438  .00000175  00000-0  30652-4 0  9999","LAUNCH_DATE":"2021-02-04","RCS_SIZE":"LARGE","COUNTRY_CODE":"US","EPHEMERIS_TYPE":"0","MEAN_MOTION":"15.06393247","OBJECT_TYPE":"PAYLOAD","FILE":"3545624","MEAN_ANOMALY":"298.5995","TLE_LINE2":"2 47585  53.0553  69.8515 0001234  61.5118 298.5995 15.06393247 85783","MEAN_MOTION_DOT":"0.00000175"},{"REV_AT_EPOCH":"8548","NORAD_CAT_ID":"47586","EPOCH":"2022-08-23T17:05:33.557280","DECAY_DATE":null,"PERIOD":"95.592","ECCENTRICITY":"0.00012730","GP_ID":"210859802","ARG_OF_PERICENTER":"72.9831","LAUNCH_DATE":"2021-02-04","TLE_LINE1":"1 47586U 21009AQ  22235.71219395  .00000032  00000-0  21008-4 0  9993","RCS_SIZE":"LARGE","COUNTRY_CODE":"US","MEAN_MOTION":"15.06397082","EPHEMERIS_TYPE":"0","OBJECT_TYPE":"PAYLOAD","FILE":"3545624","MEAN_MOTION_DOT":"0.00000032","MEAN_ANOMALY":"287.1298","TLE_LINE2":"2 47586  53.0541  90.5157 0001273  72.9831 287.1298 15.06397082 85483","PERIAPSIS":"546.341","APOAPSIS":"548.104","REF_FRAME":"TEME","ELEMENT_SET_NO":"999","CENTER_NAME":"EARTH","MEAN_ELEMENT_THEORY":"SGP4","RA_OF_ASC_NODE":"90.5157","OBJECT_ID":"2021-009AQ","OBJECT_NAME":"STARLINK-1990","CLASSIFICATION_TYPE":"U","MEAN_MOTION_DDOT":"0.0000000000000","BSTAR":"0.00002100800000","SEMIMAJOR_AXIS":"6925.358","INCLINATION":"53.0541","SITE":"AFETR","TIME_SYSTEM":"UTC"},{"MEAN_MOTION_DOT":"0.00002788","MEAN_ANOMALY":"278.6035","TLE_LINE2":"2 47587  53.0553  59.9453 0001514  81.5126 278.6035 15.06403699 85921","FILE":"3545624","OBJECT_TYPE":"PAYLOAD","MEAN_MOTION":"15.06403699","EPHEMERIS_TYPE":"0","COUNTRY_CODE":"US","RCS_SIZE":"LARGE","LAUNCH_DATE":"2021-02-04","TLE_LINE1":"1 47587U 21009AR  22235.84027813  .00002788  00000-0  20597-3 0  9991","GP_ID":"210860056","ARG_OF_PERICENTER":"81.5126","ECCENTRICITY":"0.00015140","PERIOD":"95.592","DECAY_DATE":null,"EPOCH":"2022-08-23T20:10:00.030432","NORAD_CAT_ID":"47587","REV_AT_EPOCH":"8592","TIME_SYSTEM":"UTC","SITE":"AFETR","INCLINATION":"53.0553","SEMIMAJOR_AXIS":"6925.337","MEAN_MOTION_DDOT":"0.0000000000000","BSTAR":"0.00020597000000","CLASSIFICATION_TYPE":"U","RA_OF_ASC_NODE":"59.9453","OBJECT_ID":"2021-009AR","OBJECT_NAME":"STARLINK-1991","CENTER_NAME":"EARTH","MEAN_ELEMENT_THEORY":"SGP4","ELEMENT_SET_NO":"999","PERIAPSIS":"546.154","APOAPSIS":"548.251","REF_FRAME":"TEME"},{"MEAN_MOTION_DOT":"0.00000981","MEAN_ANOMALY":"272.9897","TLE_LINE2":"2 47588  53.0547  69.9628 0001495  87.1263 272.9897 15.06399255 85781","OBJECT_TYPE":"PAYLOAD","FILE":"3545624","MEAN_MOTION":"15.06399255","EPHEMERIS_TYPE":"0","COUNTRY_CODE":"US","RCS_SIZE":"LARGE","LAUNCH_DATE":"2021-02-04","TLE_LINE1":"1 47588U 21009AS  22235.83198558  .00000981  00000-0  84745-4 0  9995","GP_ID":"210860299","ARG_OF_PERICENTER":"87.1263","ECCENTRICITY":"0.00014950","PERIOD":"95.592","DECAY_DATE":null,"EPOCH":"2022-08-23T19:58:03.554112","REV_AT_EPOCH":"8578","NORAD_CAT_ID":"47588","TIME_SYSTEM":"UTC","SITE":"AFETR","INCLINATION":"53.0547","SEMIMAJOR_AXIS":"6925.351","MEAN_MOTION_DDOT":"0.0000000000000","BSTAR":"0.00008474500000","CLASSIFICATION_TYPE":"U","RA_OF_ASC_NODE":"69.9628","OBJECT_NAME":"STARLINK-1993","OBJECT_ID":"2021-009AS","CENTER_NAME":"EARTH","MEAN_ELEMENT_THEORY":"SGP4","ELEMENT_SET_NO":"999","PERIAPSIS":"546.181","APOAPSIS":"548.251","REF_FRAME":"TEME"},{"MEAN_MOTION":"15.06395145","EPHEMERIS_TYPE":"0","FILE":"3545624","OBJECT_TYPE":"PAYLOAD","MEAN_MOTION_DOT":"0.00000777","MEAN_ANOMALY":"276.2295","TLE_LINE2":"2 47589  53.0556  70.1927 0001448  83.8859 276.2295 15.06395145 85772","COUNTRY_CODE":"US","ARG_OF_PERICENTER":"83.8859","GP_ID":"210859055","LAUNCH_DATE":"2021-02-04","TLE_LINE1":"1 47589U 21009AT  22235.78406903  .00000777  00000-0  71070-4 0  9996","RCS_SIZE":"LARGE","NORAD_CAT_ID":"47589","EPOCH":"2022-08-23T18:49:03.564192","REV_AT_EPOCH":"8577","DECAY_DATE":null,"PERIOD":"95.592","ECCENTRICITY":"0.00014480","TIME_SYSTEM":"UTC","MEAN_MOTION_DDOT":"0.0000000000000","BSTAR":"0.00007107000000","SEMIMAJOR_AXIS":"6925.363","INCLINATION":"53.0556","SITE":"AFETR","RA_OF_ASC_NODE":"70.1927","OBJECT_NAME":"STARLINK-1994","OBJECT_ID":"2021-009AT","CLASSIFICATION_TYPE":"U","APOAPSIS":"548.231","PERIAPSIS":"546.226","REF_FRAME":"TEME","ELEMENT_SET_NO":"999","CENTER_NAME":"EARTH","MEAN_ELEMENT_THEORY":"SGP4"},{"INCLINATION":"53.0549","SITE":"AFETR","BSTAR":"0.00002185900000","MEAN_MOTION_DDOT":"0.0000000000000","SEMIMAJOR_AXIS":"6925.357","TIME_SYSTEM":"UTC","ELEMENT_SET_NO":"999","MEAN_ELEMENT_THEORY":"SGP4","CENTER_NAME":"EARTH","REF_FRAME":"TEME","PERIAPSIS":"546.105","APOAPSIS":"548.339","CLASSIFICATION_TYPE":"U","OBJECT_ID":"2021-009AU","OBJECT_NAME":"STARLINK-1995","RA_OF_ASC_NODE":"92.3257","COUNTRY_CODE":"US","FILE":"3545070","OBJECT_TYPE":"PAYLOAD","MEAN_ANOMALY":"299.6227","TLE_LINE2":"2 47590  53.0549  92.3257 0001613  60.4923 299.6227 15.06397189 85421","MEAN_MOTION_DOT":"0.00000044","EPHEMERIS_TYPE":"0","MEAN_MOTION":"15.06397189","PERIOD":"95.592","ECCENTRICITY":"0.00016130","NORAD_CAT_ID":"47590","REV_AT_EPOCH":"8542","EPOCH":"2022-08-23T07:27:00.698400","DECAY_DATE":null,"TLE_LINE1":"1 47590U 21009AU  22235.31042475  .00000044  00000-0  21859-4 0  9994","LAUNCH_DATE":"2021-02-04","RCS_SIZE":"LARGE","GP_ID":"210823291","ARG_OF_PERICENTER":"60.4923"},{"RCS_SIZE":"LARGE","LAUNCH_DATE":"2021-02-04","TLE_LINE1":"1 47591U 21009AV  22235.84673143  .00000936  00000-0  81751-4 0  9992","GP_ID":"210860556","ARG_OF_PERICENTER":"68.0030","ECCENTRICITY":"0.00016050","PERIOD":"95.593","DECAY_DATE":null,"REV_AT_EPOCH":"8578","EPOCH":"2022-08-23T20:19:17.595552","NORAD_CAT_ID":"47591","MEAN_MOTION_DOT":"0.00000936","TLE_LINE2":"2 47591  53.0545  69.9149 0001605  68.0030 292.1129 15.06392180 85786","MEAN_ANOMALY":"292.1129","OBJECT_TYPE":"PAYLOAD","FILE":"3545624","MEAN_MOTION":"15.06392180","EPHEMERIS_TYPE":"0","COUNTRY_CODE":"US","CLASSIFICATION_TYPE":"U","RA_OF_ASC_NODE":"69.9149","OBJECT_NAME":"STARLINK-1996","OBJECT_ID":"2021-009AV","CENTER_NAME":"EARTH","MEAN_ELEMENT_THEORY":"SGP4","ELEMENT_SET_NO":"999","PERIAPSIS":"546.126","APOAPSIS":"548.349","REF_FRAME":"TEME","TIME_SYSTEM":"UTC","SITE":"AFETR","INCLINATION":"53.0545","SEMIMAJOR_AXIS":"6925.373","MEAN_MOTION_DDOT":"0.0000000000000","BSTAR":"0.00008175100000"}];
